QZS-3 (MICHIBIKI-3)     
1 42917U 17048A   26204.85129845 -.00000343  00000+0  00000+0 0  9998
2 42917   0.0589 200.8435 0002894 286.8507 247.3495  1.00268654 32627
AMAZONAS 5              
1 42934U 17053A   26204.74282119 -.00000278  00000+0  00000+0 0  9992
2 42934   0.0351 318.1386 0001312 142.5929  47.1491  1.00272082 32410
ASIASAT 9               
1 42942U 17057A   26203.63847756 -.00000356  00000+0  00000+0 0  9993
2 42942   0.0156  54.9271 0002068  56.3405 181.0650  1.00269552 32211
INTELSAT 37E (IS-37E)   
1 42950U 17059A   26204.82265086  .00000000  00000+0  00000+0 0  9991
2 42950   0.0244  58.6805 0003113  71.7110  89.3230  1.00270312 32432
BSAT-4A                 
1 42951U 17059B   26204.84791844 -.00000345  00000+0  00000+0 0  9993
2 42951   0.0336 359.9495 0003565  85.6472 271.0572  1.00271520 32164
QZS-4 (MICHIBIKI-4)     
1 42965U 17062A   26204.71274772 -.00000350  00000+0  00000+0 0  9990
2 42965  40.0864 343.0203 0746930 268.7110  85.8328  1.00289002 32178
SES-11 (ECHOSTAR 105)   
1 42967U 17063A   26204.63740368 -.00000085  00000+0  00000+0 0  9998
2 42967   0.0509 279.6629 0003043 198.4765 307.7433  1.00274151 32086
KOREASAT 5A             
1 42984U 17067A   26204.84861176 -.00000353  00000+0  00000+0 0  9993
2 42984   0.0115  40.2139 0001064  60.6801 259.3262  1.00271502 31895
ALCOMSAT 1              
1 43039U 17078A   26204.82126418 -.00000181  00000+0  00000+0 0  9997
2 43039   0.0289 292.2276 0002559 188.5782  91.5857  1.00272246 31665
SBIRS GEO-3 (USA 282)   
1 43162U 18009A   26204.79459138  .00000132  00000+0  00000+0 0  9998
2 43162   2.2111  13.7894 0002129 100.0745 314.3084  1.00273125 31219
AL YAH 3                
1 43174U 18012A   26204.82221751 -.00000152  00000+0  00000+0 0  9990
2 43174   1.6434  82.6629 0003770  35.7441  99.0280  1.00272110 31212
SES-14                  
1 43175U 18012B   26204.53163141 -.00000274  00000+0  00000+0 0  9992
2 43175   0.0126  36.6040 0001177  76.7849 331.7515  1.00272401  7398
GOES 17                 
1 43226U 18022A   26204.59457845 -.00000179  00000+0  00000+0 0  9997
2 43226   1.0278  85.1400 0000716  57.4315 283.3017  1.00271882 30785
HISPASAT 30W-6          
1 43228U 18023A   26204.39251603 -.00000211  00000+0  00000+0 0  9999
2 43228   0.0409  51.3716 0005370  44.7905 316.2773  1.00272890 30765
SUPERBIRD-B3            
1 43271U 18033A   26204.84419939 -.00000087  00000+0  00000+0 0  9997
2 43271   0.0182 307.7412 0001579 192.9160 266.8305  1.00272327 30427
HYLAS 4                 
1 43272U 18033B   26204.39182271 -.00000229  00000+0  00000+0 0  9992
2 43272   0.0342 259.9386 0000804 225.3681 283.3805  1.00271461 30420
IRNSS-1I                
1 43286U 18035A   26202.89458949  .00000062  00000+0  00000+0 0  9994
2 43286  28.8336  73.6540 0018405 179.0574  64.0489  1.00274701 30423
USA 283                 
1 43339U 18036A   26200.50433174 -.00000322  00000+0  00000+0 0  9993
2 43339   0.0121 113.1212 0000802  85.3615  54.4575  1.00271912 25614
COSMOS 2526             
1 43432U 18037A   26204.85155845 -.00000340  00000+0  00000+0 0  9996
2 43432   0.0314  98.5475 0000741 133.4705 144.1676  1.00271410 30322
APSTAR-6C               
1 43450U 18041A   26202.71413248 -.00000315  00000+0  00000+0 0  9990
2 43450   0.0438 302.0343 0000212 323.4886  65.0495  1.00272947 30157
BANGABANDHUSAT-1        
1 43463U 18044A   26204.70720103 -.00000357  00000+0  00000+0 0  9995
2 43463   0.0127 108.9311 0002304  21.9431 184.2457  1.00270606 30077
SES-12                  
1 43488U 18049A   26204.84497176 -.00000265  00000+0  00000+0 0  9991
2 43488   0.0110   5.2198 0000530 231.6046 103.9368  1.00273997 29780
FENGYUN 2H              
1 43491U 18050A   26204.85407096 -.00000123  00000+0  00000+0 0  9993
2 43491   3.1234  78.6433 0002067 123.0193 126.3794  1.00267365 29802
BEIDOU-2 IGSO-7         
1 43539U 18057A   26197.82826650 -.00000084  00000+0  00000+0 0  9998
2 43539  55.1987 162.7987 0104914 237.9691 299.1450  1.00242392 29427
TELSTAR 19V             
1 43562U 18059A   26204.81365814 -.00000275  00000+0  00000+0 0  9996
2 43562   0.0306 168.3352 0003199 320.6132  42.5051  1.00271075 29515
TELKOM 4 (MERAH PUTIH)  
1 43587U 18064A   26204.84757176 -.00000339  00000+0  00000+0 0  9999
2 43587   0.0155  78.2224 0001357  45.5524 230.9126  1.00270627 29241
TELSTAR 18V             
1 43611U 18069A   26204.85346513 -.00000289  00000+0  00000+0 0  9996
2 43611   0.0139 340.9413 0002033 140.1809 265.7029  1.00270483 29002
AZERSPACE 2 (IS-38)     
1 43632U 18074A   26204.35669890  .00000141  00000+0  00000+0 0  9992
2 43632   0.0174  47.4997 0001318  54.2391  12.8730  1.00269800 28815
HORIZONS-3E             
1 43633U 18074B   26204.57447168 -.00000026  00000+0  00000+0 0  9992
2 43633   0.0322 239.3133 0000315  79.1148 358.6734  1.00272034 28703
AEHF-4 (USA 288)        
1 43651U 18079A   26204.52781808 -.00000271  00000+0  00000+0 0  9996
2 43651   1.4327   4.6954 0060440 355.8636  63.2098  1.00273162 28668
BEIDOU-3 G1             
1 43683U 18085A   26204.78653134 -.00000106  00000+0  00000+0 0  9993
2 43683   2.9588  96.3840 0008363 357.7120 290.5706  1.00273105 28427
GSAT-29                 
1 43698U 18089A   26204.83708506  .00000090  00000+0  00000+0 0  9994
2 43698   0.0062  31.8225 0003290  71.2146 194.9059  1.00271004 28154
