OBJECT_NAME,OBJECT_ID,EPOCH,MEAN_MOTION,ECCENTRICITY,INCLINATION,RA_OF_ASC_NODE,ARG_OF_PERICENTER,MEAN_ANOMALY,EPHEMERIS_TYPE,CLASSIFICATION_TYPE,NORAD_CAT_ID,ELEMENT_SET_NO,REV_AT_EPOCH,BSTAR,MEAN_MOTION_DOT,MEAN_MOTION_DDOT
QZS-3 (MICHIBIKI-3),2017-048A,2026-07-23T20:25:52.186080,1.00268654,.0002894,0.0589,200.8435,286.8507,247.3495,0,U,42917,999,3262,0,-.343E-5,0
AMAZONAS 5,2017-053A,2026-07-23T17:49:39.750816,1.00272082,.0001312,0.0351,318.1386,142.5929,47.1491,0,U,42934,999,3241,0,-.278E-5,0
ASIASAT 9,2017-057A,2026-07-22T15:19:24.461184,1.00269552,.00020682,0.0156,54.9271,56.3405,181.0650,0,U,42942,999,3221,0,-.356E-5,0
INTELSAT 37E (IS-37E),2017-059A,2026-07-23T19:44:37.034304,1.00270312,.0003113,0.0244,58.6805,71.7110,89.3230,0,U,42950,999,3243,0,0,0
BSAT-4A,2017-059B,2026-07-23T20:21:00.153216,1.00271520,.0003565,0.0336,359.9495,85.6472,271.0572,0,U,42951,999,3216,0,-.345E-5,0
QZS-4 (MICHIBIKI-4),2017-062A,2026-07-23T17:06:21.403008,1.00289002,.074693,40.0864,343.0203,268.7110,85.8328,0,U,42965,999,3217,0,-.35E-5,0
SES-11 (ECHOSTAR 105),2017-063A,2026-07-23T15:17:51.677952,1.00274151,.0003043,0.0509,279.6629,198.4765,307.7433,0,U,42967,999,3208,0,-.85E-6,0
KOREASAT 5A,2017-067A,2026-07-23T20:22:00.056064,1.00271502,.0001064,0.0115,40.2139,60.6801,259.3262,0,U,42984,999,3189,0,-.353E-5,0
ALCOMSAT 1,2017-078A,2026-07-23T19:42:37.225152,1.00272246,.0002559,0.0289,292.2276,188.5782,91.5857,0,U,43039,999,3166,0,-.181E-5,0
SBIRS GEO-3 (USA 282),2018-009A,2026-07-23T19:04:12.695232,1.00273125,.0002129,2.2111,13.7894,100.0745,314.3084,0,U,43162,999,3121,0,.132E-5,0
AL YAH 3,2018-012A,2026-07-23T19:43:59.592864,1.00272110,.000377,1.6434,82.6629,35.7441,99.0280,0,U,43174,999,3121,0,-.152E-5,0
SES-14,2018-012B,2026-07-23T12:45:32.953824,1.00272401,.0001177,0.0126,36.6040,76.7849,331.7515,0,U,43175,999,739,0,-.274E-5,0
GOES 17,2018-022A,2026-07-23T14:16:11.578080,1.00271882,.0000716,1.0278,85.1400,57.4315,283.3017,0,U,43226,999,3078,0,-.179E-5,0
HISPASAT 30W-6,2018-023A,2026-07-23T09:25:13.384992,1.00272890,.000537,0.0409,51.3716,44.7905,316.2773,0,U,43228,999,3076,0,-.211E-5,0
SUPERBIRD-B3,2018-033A,2026-07-23T20:15:38.827296,1.00272327,.0001579,0.0182,307.7412,192.9160,266.8305,0,U,43271,999,3042,0,-.87E-6,0
HYLAS 4,2018-033B,2026-07-23T09:24:13.482144,1.00271461,.0000804,0.0342,259.9386,225.3681,283.3805,0,U,43272,999,3042,0,-.229E-5,0
IRNSS-1I,2018-035A,2026-07-21T21:28:12.531936,1.00274701,.00184053,28.8336,73.6540,179.0574,64.0489,0,U,43286,999,3042,0,.62E-6,0
USA 283,2018-036A,2026-07-19T12:06:14.262336,1.00271912,.0000802,0.0121,113.1212,85.3615,54.4575,0,U,43339,999,2561,0,-.322E-5,0
COSMOS 2526,2018-037A,2026-07-23T20:26:14.650080,1.00271410,.0000741,0.0314,98.5475,133.4705,144.1676,0,U,43432,999,3032,0,-.34E-5,0
APSTAR-6C,2018-041A,2026-07-21T17:08:21.046272,1.00272947,.0000212,0.0438,302.0343,323.4886,65.0495,0,U,43450,999,3015,0,-.315E-5,0
BANGABANDHUSAT-1,2018-044A,2026-07-23T16:58:22.168992,1.00270606,.0002304,0.0127,108.9311,21.9431,184.2457,0,U,43463,999,3007,0,-.357E-5,0
SES-12,2018-049A,2026-07-23T20:16:45.560064,1.00273997,.000053,0.0110,5.2198,231.6046,103.9368,0,U,43488,999,2978,0,-.265E-5,0
FENGYUN 2H,2018-050A,2026-07-23T20:29:51.730944,1.00267365,.0002067,3.1234,78.6433,123.0193,126.3794,0,U,43491,999,2980,0,-.123E-5,0
BEIDOU-2 IGSO-7,2018-057A,2026-07-16T19:52:42.225600,1.00242392,.01049148,55.1987,162.7987,237.9691,299.1450,0,U,43539,999,2942,0,-.84E-6,0
TELSTAR 19V,2018-059A,2026-07-23T19:31:40.063296,1.00271075,.0003199,0.0306,168.3352,320.6132,42.5051,0,U,43562,999,2951,0,-.275E-5,0
TELKOM 4 (MERAH PUTIH),2018-064A,2026-07-23T20:20:30.200064,1.00270627,.0001357,0.0155,78.2224,45.5524,230.9126,0,U,43587,999,2924,0,-.339E-5,0
TELSTAR 18V,2018-069A,2026-07-23T20:28:59.387232,1.00270483,.0002033,0.0139,340.9413,140.1809,265.7029,0,U,43611,999,2900,0,-.289E-5,0
AZERSPACE 2 (IS-38),2018-074A,2026-07-23T08:33:38.784960,1.00269800,.0001318,0.0174,47.4997,54.2391,12.8730,0,U,43632,999,2881,0,.141E-5,0
HORIZONS-3E,2018-074B,2026-07-23T13:47:14.353152,1.00272034,.0000315,0.0322,239.3133,79.1148,358.6734,0,U,43633,999,2870,0,-.26E-6,0
AEHF-4 (USA 288),2018-079A,2026-07-23T12:40:03.482112,1.00273162,.006044,1.4327,4.6954,355.8636,63.2098,0,U,43651,999,2866,0,-.271E-5,0
BEIDOU-3 G1,2018-085A,2026-07-23T18:52:36.307776,1.00273105,.0008363,2.9588,96.3840,357.7120,290.5706,0,U,43683,999,2842,0,-.106E-5,0
GSAT-29,2018-089A,2026-07-23T20:05:24.149184,1.00271004,.000329,0.0062,31.8225,71.2146,194.9059,0,U,43698,999,2815,0,.9E-6,0
